HULIANWANG DIGUI-145    
1 67443U 26007J   26062.33708830 -.00000023  00000+0  17986-3 0  9996
2 67443  50.0026 105.7349 0002394 195.2425 164.8382 13.44957016  6709
